{
 "type": "FeatureCollection",
 "name": "nissan_smyrna_v1",
 "features": [
  {
   "type": "Feature",
   "properties": {
    "zone_id": "Z1_north"
   },
   "geometry": {
    "type": "Polygon",
    "coordinates": [
     [
      [
       -86.4760181,
       35.9632164
      ],
      [
       -86.4724941,
       35.9628061
      ],
      [
       -86.4707321,
       35.9626198
      ],
      [
       -86.4707369,
       35.9618895
      ],
      [
       -86.4726317,
       35.9621305
      ],
      [
       -86.4759563,
       35.9624967
      ],
      [
       -86.4760181,
       35.9632164
      ]
     ]
    ]
   }
  },
  {
   "type": "Feature",
   "properties": {
    "zone_id": "Z2_east"
   },
   "geometry": {
    "type": "Polygon",
    "coordinates": [
     [
      [
       -86.4706855,
       35.9626196
      ],
      [
       -86.4688693,
       35.9625629
      ],
      [
       -86.4688747,
       35.9617623
      ],
      [
       -86.4706909,
       35.9618136
      ],
      [
       -86.4706855,
       35.9626196
      ]
     ]
    ]
   }
  },
  {
   "type": "Feature",
   "properties": {
    "zone_id": "Z3_middle"
   },
   "geometry": {
    "type": "Polygon",
    "coordinates": [
     [
      [
       -86.4783193,
       35.9623663
      ],
      [
       -86.4723666,
       35.9619724
      ],
      [
       -86.4724799,
       35.9599498
      ],
      [
       -86.4757062,
       35.9600613
      ],
      [
       -86.4757055,
       35.9601695
      ],
      [
       -86.4783316,
       35.9604892
      ],
      [
       -86.4783193,
       35.9623663
      ]
     ]
    ]
   }
  },
  {
   "type": "Feature",
   "properties": {
    "zone_id": "Z4_south"
   },
   "geometry": {
    "type": "Polygon",
    "coordinates": [
     [
      [
       -86.4785338,
       35.9601006
      ],
      [
       -86.475707,
       35.9599423
      ],
      [
       -86.4747223,
       35.959938
      ],
      [
       -86.4748393,
       35.9583373
      ],
      [
       -86.4789763,
       35.9585717
      ],
      [
       -86.4789738,
       35.9589557
      ],
      [
       -86.4785413,
       35.9589539
      ],
      [
       -86.4785338,
       35.9601006
      ]
     ]
    ]
   }
  }
 ]
}